[{"OBJECT_NAME":"VSP RF A1","OBJECT_ID":"2024-043AP","EPOCH":"2026-03-07T00:44:15.345024","MEAN_MOTION":15.26179596,"ECCENTRICITY":0.00094313,"INCLINATION":97.5247,"RA_OF_ASC_NODE":201.5379,"ARG_OF_PERICENTER":234.6315,"MEAN_ANOMALY":125.4042,"EPHEMERIS_TYPE":0,"CLASSIFICATION_TYPE":"U","NORAD_CAT_ID":59135,"ELEMENT_SET_NO":999,"REV_AT_EPOCH":11140,"BSTAR":2.5198753e-5,"MEAN_MOTION_DOT":5.77e-6,"MEAN_MOTION_DDOT":0},{"OBJECT_NAME":"STARLINK-32393","OBJECT_ID":"2024-202T","EPOCH":"2026-03-09T11:20:01.706208","MEAN_MOTION":15.27579329,"ECCENTRICITY":0.00017329,"INCLINATION":43.0016,"RA_OF_ASC_NODE":239.2823,"ARG_OF_PERICENTER":279.9745,"MEAN_ANOMALY":80.0911,"EPHEMERIS_TYPE":0,"CLASSIFICATION_TYPE":"U","NORAD_CAT_ID":61862,"ELEMENT_SET_NO":999,"REV_AT_EPOCH":7530,"BSTAR":2.1413949e-5,"MEAN_MOTION_DOT":3.27e-6,"MEAN_MOTION_DDOT":0}]
